TIANMU-1 07             
1 57399U 23101A   26065.57454230  .00008352  00000+0  29795-3 0  9991
2 57399  97.2728 118.5929 0004609 142.4105 217.7458 15.29118809145964
STARLINK-35734          
1 66225U 25244V   26068.72911432  .00022688  00000+0  77582-3 0  9996
2 66225  53.1576 229.8587 0001041  60.4989 299.6116 15.30199472 21663
